{
  "type": "FeatureCollection",
  "features": [
    {
      "type": "Feature",
      "properties": {
        "norad_id": 66528,
        "name": "STARLINK-35928",
        "group": "last-30-days",
        "lat": 25.371617181881053,
        "lon": -143.4244941147902,
        "alt_km": 411.91746193489325,
        "timestamp": "2025-12-10T11:33:52.171925+00:00",
        "meta_object_name": "STARLINK-35928",
        "meta_object_id": "2025-265N",
        "meta_epoch": "2025-12-10T04:00:01.998720",
        "meta_mean_motion": 15.50535088,
        "meta_eccentricity": 0.0001735,
        "meta_inclination": 42.9998,
        "meta_ra_of_asc_node": 69.0109,
        "meta_arg_of_pericenter": 274.8457,
        "meta_mean_anomaly": 264.8196,
        "meta_ephemeris_type": 0,
        "meta_classification_type": "U",
        "meta_norad_cat_id": 66528,
        "meta_element_set_no": 999,
        "meta_rev_at_epoch": 458,
        "meta_bstar": 0.00059329,
        "meta_mean_motion_dot": 0.00034563,
        "meta_mean_motion_ddot": 0,
        "tle_line1": "1 66528U 25265N   25344.16668980  .00034563  00000+0  59329-3 0  9990",
        "tle_line2": "2 66528  42.9998  69.0109 0001735 274.8457 264.8196 15.50535088  4581"
      },
      "geometry": {
        "type": "Point",
        "coordinates": [
          -143.4244941147902,
          25.371617181881053
        ]
      }
    },
    {
      "type": "Feature",
      "properties": {
        "norad_id": 66529,
        "name": "STARLINK-35933",
        "group": "last-30-days",
        "lat": 24.22976036938816,
        "lon": -141.71758197149023,
        "alt_km": 411.8498358137995,
        "timestamp": "2025-12-10T11:33:52.171945+00:00",
        "meta_object_name": "STARLINK-35933",
        "meta_object_id": "2025-265P",
        "meta_epoch": "2025-12-10T04:00:01.998720",
        "meta_mean_motion": 15.50562204,
        "meta_eccentricity": 0.0001692,
        "meta_inclination": 42.9998,
        "meta_ra_of_asc_node": 69.0052,
        "meta_arg_of_pericenter": 263.5168,
        "meta_mean_anomaly": 278.0571,
        "meta_ephemeris_type": 0,
        "meta_classification_type": "U",
        "meta_norad_cat_id": 66529,
        "meta_element_set_no": 999,
        "meta_rev_at_epoch": 458,
        "meta_bstar": 0.00012449,
        "meta_mean_motion_dot": 6.964e-05,
        "meta_mean_motion_ddot": 0,
        "tle_line1": "1 66529U 25265P   25344.16668980  .00006964  00000+0  12449-3 0  9997",
        "tle_line2": "2 66529  42.9998  69.0052 0001692 263.5168 278.0571 15.50562204  4589"
      },
      "geometry": {
        "type": "Point",
        "coordinates": [
          -141.71758197149023,
          24.22976036938816
        ]
      }
    },
    {
      "type": "Feature",
      "properties": {
        "norad_id": 66530,
        "name": "STARLINK-35961",
        "group": "last-30-days",
        "lat": 23.071379699287238,
        "lon": -140.04371425900544,
        "alt_km": 412.2115519919498,
        "timestamp": "2025-12-10T11:33:52.171956+00:00",
        "meta_object_name": "STARLINK-35961",
        "meta_object_id": "2025-265Q",
        "meta_epoch": "2025-12-10T04:00:01.998720",
        "meta_mean_motion": 15.50597862,
        "meta_eccentricity": 0.0001637,
        "meta_inclination": 42.9997,
        "meta_ra_of_asc_node": 69.0005,
        "meta_arg_of_pericenter": 274.4504,
        "meta_mean_anomaly": 269.0337,
        "meta_ephemeris_type": 0,
        "meta_classification_type": "U",
        "meta_norad_cat_id": 66530,
        "meta_element_set_no": 999,
        "meta_rev_at_epoch": 458,
        "meta_bstar": -0.0012889,
        "meta_mean_motion_dot": -0.00075283,
        "meta_mean_motion_ddot": 0,
        "tle_line1": "1 66530U 25265Q   25344.16668980 -.00075283  00000+0 -12889-2 0  9998",
        "tle_line2": "2 66530  42.9997  69.0005 0001637 274.4504 269.0337 15.50597862  4580"
      },
      "geometry": {
        "type": "Point",
        "coordinates": [
          -140.04371425900544,
          23.071379699287238
        ]
      }
    },
    {
      "type": "Feature",
      "properties": {
        "norad_id": 66531,
        "name": "STARLINK-35960",
        "group": "last-30-days",
        "lat": 21.90004301979348,
        "lon": -138.4053620327003,
        "alt_km": 412.20840619194223,
        "timestamp": "2025-12-10T11:33:52.171968+00:00",
        "meta_object_name": "STARLINK-35960",
        "meta_object_id": "2025-265R",
        "meta_epoch": "2025-12-10T04:00:01.998720",
        "meta_mean_motion": 15.50594204,
        "meta_eccentricity": 0.0001459,
        "meta_inclination": 42.9999,
        "meta_ra_of_asc_node": 68.995,
        "meta_arg_of_pericenter": 268.4272,
        "meta_mean_anomaly": 276.9751,
        "meta_ephemeris_type": 0,
        "meta_classification_type": "U",
        "meta_norad_cat_id": 66531,
        "meta_element_set_no": 999,
        "meta_rev_at_epoch": 458,
        "meta_bstar": -0.0011835,
        "meta_mean_motion_dot": -0.00069201,
        "meta_mean_motion_ddot": 0,
        "tle_line1": "1 66531U 25265R   25344.16668980 -.00069201  00000+0 -11835-2 0  9992",
        "tle_line2": "2 66531  42.9999  68.9950 0001459 268.4272 276.9751 15.50594204  4581"
      },
      "geometry": {
        "type": "Point",
        "coordinates": [
          -138.4053620327003,
          21.90004301979348
        ]
      }
    },
    {
      "type": "Feature",
      "properties": {
        "norad_id": 66532,
        "name": "STARLINK-35914",
        "group": "last-30-days",
        "lat": 20.721683074285288,
        "lon": -136.80464840540384,
        "alt_km": 412.5385480373807,
        "timestamp": "2025-12-10T11:33:52.171981+00:00",
        "meta_object_name": "STARLINK-35914",
        "meta_object_id": "2025-265S",
        "meta_epoch": "2025-12-10T04:00:01.998720",
        "meta_mean_motion": 15.50539278,
        "meta_eccentricity": 0.0001766,
        "meta_inclination": 42.9998,
        "meta_ra_of_asc_node": 68.9912,
        "meta_arg_of_pericenter": 273.9739,
        "meta_mean_anomaly": 273.3581,
        "meta_ephemeris_type": 0,
        "meta_classification_type": "U",
        "meta_norad_cat_id": 66532,
        "meta_element_set_no": 999,
        "meta_rev_at_epoch": 458,
        "meta_bstar": 0.00055717,
        "meta_mean_motion_dot": 0.00032434,
        "meta_mean_motion_ddot": 0,
        "tle_line1": "1 66532U 25265S   25344.16668980  .00032434  00000+0  55717-3 0  9997",
        "tle_line2": "2 66532  42.9998  68.9912 0001766 273.9739 273.3581 15.50539278  4581"
      },
      "geometry": {
        "type": "Point",
        "coordinates": [
          -136.80464840540384,
          20.721683074285288
        ]
      }
    },
    {
      "type": "Feature",
      "properties": {
        "norad_id": 66533,
        "name": "STARLINK-35707",
        "group": "last-30-days",
        "lat": 19.510111512764244,
        "lon": -135.20679803272597,
        "alt_km": 412.61734084369346,
        "timestamp": "2025-12-10T11:33:52.171991+00:00",
        "meta_object_name": "STARLINK-35707",
        "meta_object_id": "2025-265T",
        "meta_epoch": "2025-12-10T04:00:01.998720",
        "meta_mean_motion": 15.50601804,
        "meta_eccentricity": 0.000165,
        "meta_inclination": 42.9995,
        "meta_ra_of_asc_node": 68.9855,
        "meta_arg_of_pericenter": 269.6477,
        "meta_mean_anomaly": 279.585,
        "meta_ephemeris_type": 0,
        "meta_classification_type": "U",
        "meta_norad_cat_id": 66533,
        "meta_element_set_no": 999,
        "meta_rev_at_epoch": 458,
        "meta_bstar": -0.0013724,
        "meta_mean_motion_dot": -0.000801,
        "meta_mean_motion_ddot": 0,
        "tle_line1": "1 66533U 25265T   25344.16668980 -.00080100  00000+0 -13724-2 0  9994",
        "tle_line2": "2 66533  42.9995  68.9855 0001650 269.6477 279.5850 15.50601804  4580"
      },
      "geometry": {
        "type": "Point",
        "coordinates": [
          -135.20679803272597,
          19.510111512764244
        ]
      }
    },
    {
      "type": "Feature",
      "properties": {
        "norad_id": 66534,
        "name": "STARLINK-35976",
        "group": "last-30-days",
        "lat": 18.30286761036065,
        "lon": -133.65295278273973,
        "alt_km": 412.8097573692685,
        "timestamp": "2025-12-10T11:33:52.172001+00:00",
        "meta_object_name": "STARLINK-35976",
        "meta_object_id": "2025-265U",
        "meta_epoch": "2025-12-10T04:00:01.998720",
        "meta_mean_motion": 15.50538118,
        "meta_eccentricity": 0.0001779,
        "meta_inclination": 43,
        "meta_ra_of_asc_node": 68.9822,
        "meta_arg_of_pericenter": 270.8896,
        "meta_mean_anomaly": 280.2793,
        "meta_ephemeris_type": 0,
        "meta_classification_type": "U",
        "meta_norad_cat_id": 66534,
        "meta_element_set_no": 999,
        "meta_rev_at_epoch": 458,
        "meta_bstar": 0.00056079,
        "meta_mean_motion_dot": 0.00032647,
        "meta_mean_motion_ddot": 0,
        "tle_line1": "1 66534U 25265U   25344.16668980  .00032647  00000+0  56079-3 0  9997",
        "tle_line2": "2 66534  43.0000  68.9822 0001779 270.8896 280.2793 15.50538118  4587"
      },
      "geometry": {
        "type": "Point",
        "coordinates": [
          -133.65295278273973,
          18.30286761036065
        ]
      }
    }
  ]
}